{
  "norad_id": 32258,
  "name": "WGS F1 (USA 195)",
  "history": [
    {
      "epoch": "2026-04-13T06:16:01.014240Z",
      "apogee_km": 35787.713279143216,
      "perigee_km": 35785.917895462044,
      "latitude_deg": 0.029268241445888778,
      "longitude_deg": -42.47795485640873,
      "height_km": 35785.425155229095,
      "semi_major_axis_km": 42164.95258730263,
      "eccentricity": 2.129e-05,
      "inclination_deg": 0.0744,
      "raan_deg": 81.1485,
      "arg_perigee_deg": 183.4302,
      "mean_anomaly_deg": 348.4042,
      "mean_motion_rev_day": 1.00270998
    },
    {
      "epoch": "2026-04-14T19:00:41.843808Z",
      "apogee_km": 35787.55733123958,
      "perigee_km": 35785.297310591974,
      "latitude_deg": -0.018939651909862135,
      "longitude_deg": -42.47327490442291,
      "height_km": 35786.953847938574,
      "semi_major_axis_km": 42164.56432091578,
      "eccentricity": 2.68e-05,
      "inclination_deg": 0.0758,
      "raan_deg": 80.9308,
      "arg_perigee_deg": 207.9013,
      "mean_anomaly_deg": 156.8364,
      "mean_motion_rev_day": 1.00272383
    },
    {
      "epoch": "2026-04-15T18:58:08.196096Z",
      "apogee_km": 35789.16912771384,
      "perigee_km": 35785.391106340154,
      "latitude_deg": -0.019060242073475054,
      "longitude_deg": -42.473486510559454,
      "height_km": 35788.06904745247,
      "semi_major_axis_km": 42165.417117027,
      "eccentricity": 4.48e-05,
      "inclination_deg": 0.0748,
      "raan_deg": 80.5518,
      "arg_perigee_deg": 231.7134,
      "mean_anomaly_deg": 133.7463,
      "mean_motion_rev_day": 1.00269341
    },
    {
      "epoch": "2026-04-16T08:39:30.655008Z",
      "apogee_km": 35788.45249548808,
      "perigee_km": 35785.34071600797,
      "latitude_deg": -0.005163141493878957,
      "longitude_deg": -42.47477754970711,
      "height_km": 35784.94917147849,
      "semi_major_axis_km": 42165.03360574803,
      "eccentricity": 3.69e-05,
      "inclination_deg": 0.0749,
      "raan_deg": 80.6377,
      "arg_perigee_deg": 189.6301,
      "mean_anomaly_deg": 21.6512,
      "mean_motion_rev_day": 1.00270709
    },
    {
      "epoch": "2026-04-17T22:18:22.997376Z",
      "apogee_km": 35788.78222655326,
      "perigee_km": 35783.32449375305,
      "latitude_deg": 0.02937737630861452,
      "longitude_deg": -42.478934393837186,
      "height_km": 35787.46629639051,
      "semi_major_axis_km": 42164.19036015316,
      "eccentricity": 6.472e-05,
      "inclination_deg": 0.0748,
      "raan_deg": 80.8052,
      "arg_perigee_deg": 192.7067,
      "mean_anomaly_deg": 224.6747,
      "mean_motion_rev_day": 1.00273717
    }
  ]
}